CCSDS_OEM_VERS = 1.0
CREATION_DATE  = 2017-05-11T11:41:31
ORIGINATOR     = GMAT USER

META_START
OBJECT_NAME          = MOPSSat_alt_35785_km_RAAN_180_125
OBJECT_ID            = SatId
CENTER_NAME          = Earth
REF_FRAME            = EME2000
TIME_SYSTEM          = UTC
START_TIME           = 2017-01-01T00:00:00.000
USEABLE_START_TIME   = 2017-01-01T00:00:00.000
USEABLE_STOP_TIME    = 2017-01-02T00:00:00.000
STOP_TIME            = 2017-01-02T00:00:00.000
INTERPOLATION        = Lagrange
INTERPOLATION_DEGREE = 7 
META_STOP


                                                                                   

2017-01-01T09:46:40.000   5.069948794876097e+04  -1.731777941957086e+04   2.896556703470324e+01   1.042201254353110e+00   2.083250563636446e+00  -3.728486277885603e-03
2017-01-01T09:46:50.000   5.070990339057875e+04  -1.729694467099932e+04   2.892827817076837e+01   1.040887102271774e+00   2.083699047023261e+00  -3.729286322541656e-03
2017-01-01T09:47:00.000   5.072030569076866e+04  -1.727610544050139e+04   2.889098131162202e+01   1.039572910320536e+00   2.084146911972578e+00  -3.730085254055918e-03
2017-01-01T09:47:10.000   5.073069484890460e+04  -1.725526173431529e+04   2.885367646849211e+01   1.038258678594071e+00   2.084594158673121e+00  -3.730883072738062e-03
2017-01-01T09:47:20.000   5.074107086454710e+04  -1.723441355870759e+04   2.881636365265767e+01   1.036944407188780e+00   2.085040787312729e+00  -3.731679778896211e-03
2017-01-01T09:47:30.000   5.075143373725295e+04  -1.721356091995224e+04   2.877904287541106e+01   1.035630096201476e+00   2.085486798078767e+00  -3.732475372837652e-03
2017-01-01T09:47:40.000   5.076178346657904e+04  -1.719270382432299e+04   2.874171414804466e+01   1.034315745728910e+00   2.085932191158292e+00  -3.733269854869144e-03
2017-01-01T09:47:50.000   5.077212005211982e+04  -1.717184227801900e+04   2.870437748171761e+01   1.033001355863076e+00   2.086376966739664e+00  -3.734063225299793e-03
2017-01-01T09:48:00.000   5.078244349348195e+04  -1.715097628721438e+04   2.866703288754452e+01   1.031686926694339e+00   2.086821125011462e+00  -3.734855484439109e-03
2017-01-01T09:48:10.000   5.079275379028467e+04  -1.713010585805824e+04   2.862968037659549e+01   1.030372458311438e+00   2.087264666162488e+00  -3.735646632597019e-03
2017-01-01T09:48:20.000   5.080305094218360e+04  -1.710923099662473e+04   2.859231995980677e+01   1.029057950798350e+00   2.087707590382799e+00  -3.736436670085714e-03
2017-01-01T09:48:30.000   5.081333494883443e+04  -1.708835170898787e+04   2.855495164811462e+01   1.027743404238993e+00   2.088149897862143e+00  -3.737225597216842e-03
2017-01-01T09:48:40.000   5.082360580988923e+04  -1.706746800122903e+04   2.851757545246882e+01   1.026428818717701e+00   2.088591588789801e+00  -3.738013414301243e-03
2017-01-01T09:48:50.000   5.083386352498541e+04  -1.704657987945752e+04   2.848019138386939e+01   1.025114194320529e+00   2.089032663354105e+00  -3.738800121648086e-03
2017-01-01T09:49:00.000   5.084410809373849e+04  -1.702568734982764e+04   2.844279945339709e+01   1.023799531136309e+00   2.089473121742144e+00  -3.739585719564330e-03
2017-01-01T09:49:10.000   5.085433951577194e+04  -1.700479041847701e+04   2.840539967210320e+01   1.022484829252783e+00   2.089912964141030e+00  -3.740370208357004e-03
2017-01-01T09:49:20.000   5.086455779058344e+04  -1.698388909180245e+04   2.836799205150309e+01   1.021170088773929e+00   2.090352190732163e+00  -3.741153588322963e-03
2017-01-01T09:49:30.000   5.087476291770719e+04  -1.696298337612582e+04   2.833057660297832e+01   1.019855309798964e+00   2.090790801698202e+00  -3.741935859761332e-03
2017-01-01T09:49:40.000   5.088495489665334e+04  -1.694207327781825e+04   2.829315333799889e+01   1.018540492430157e+00   2.091228797220464e+00  -3.742717022968850e-03
2017-01-01T09:49:50.000   5.089513372714271e+04  -1.692115880281923e+04   2.825572226726252e+01   1.017225636742579e+00   2.091666177489005e+00  -3.743497078257870e-03
2017-01-01T09:50:00.000   5.090529940887247e+04  -1.690023995711620e+04   2.821828340155309e+01   1.015910742814275e+00   2.092102942692559e+00  -3.744276025938406e-03
2017-01-01T09:50:10.000   5.091545194156962e+04  -1.687931674663607e+04   2.818083675154636e+01   1.014595810719427e+00   2.092539093020831e+00  -3.745053866322221e-03
2017-01-01T09:50:20.000   5.092559132485762e+04  -1.685838917751551e+04   2.814338232829381e+01   1.013280840545381e+00   2.092974628658765e+00  -3.745830599712597e-03
2017-01-01T09:50:30.000   5.093571755835589e+04  -1.683745725590039e+04   2.810592014286371e+01   1.011965832380006e+00   2.093409549790818e+00  -3.746606226411979e-03
2017-01-01T09:50:40.000   5.094583064167895e+04  -1.681652098794562e+04   2.806845020634067e+01   1.010650786311698e+00   2.093843856600934e+00  -3.747380746721905e-03
2017-01-01T09:50:50.000   5.095593057434115e+04  -1.679558038001693e+04   2.803097253018701e+01   1.009335702442022e+00   2.094277549268443e+00  -3.748154160935712e-03
2017-01-01T09:51:00.000   5.096601735588578e+04  -1.677463543841928e+04   2.799348712575648e+01   1.008020580868684e+00   2.094710627973618e+00  -3.748926469348423e-03
2017-01-01T09:51:10.000   5.097609098583408e+04  -1.675368616950371e+04   2.795599400448561e+01   1.006705421692235e+00   2.095143092895466e+00  -3.749697672252841e-03
2017-01-01T09:51:20.000   5.098615146391251e+04  -1.673273257919474e+04   2.791849317704788e+01   1.005390224986400e+00   2.095574944221503e+00  -3.750467769956949e-03
2017-01-01T09:51:30.000   5.099619878982522e+04  -1.671177467346298e+04   2.788098465419944e+01   1.004074990827750e+00   2.096006182137976e+00  -3.751236762766494e-03
2017-01-01T09:51:40.000   5.100623296330584e+04  -1.669081245821834e+04   2.784346844658820e+01   1.002759719288997e+00   2.096436806832094e+00  -3.752004650988944e-03
2017-01-01T09:51:50.000   5.101625398398560e+04  -1.666984593958095e+04   2.780594456523852e+01   1.001444410456020e+00   2.096866818486353e+00  -3.752771434923394e-03
2017-01-01T09:52:00.000   5.102626185149172e+04  -1.664887512368023e+04   2.776841302119163e+01   1.000129064415230e+00   2.097296217282777e+00  -3.753537114868102e-03
2017-01-01T09:52:10.000   5.103625656544669e+04  -1.662790001665459e+04   2.773087382550522e+01   9.988136812535614e-01   2.097725003402871e+00  -3.754301691120435e-03
2017-01-01T09:52:20.000   5.104623812537390e+04  -1.660692062485377e+04   2.769332698961535e+01   9.974982610711283e-01   2.098153177023593e+00  -3.755065163969657e-03
2017-01-01T09:52:30.000   5.105620653082539e+04  -1.658593695456658e+04   2.765577252484943e+01   9.961828039641851e-01   2.098580738322817e+00  -3.755827533706691e-03
2017-01-01T09:52:40.000   5.106616178133134e+04  -1.656494901212809e+04   2.761821044261784e+01   9.948673100318376e-01   2.099007687477175e+00  -3.756588800620266e-03
2017-01-01T09:52:50.000   5.107610387662479e+04  -1.654395680344605e+04   2.758064075356647e+01   9.935517793463573e-01   2.099434024671694e+00  -3.757348965014089e-03
2017-01-01T09:53:00.000   5.108603281641677e+04  -1.652296033447439e+04   2.754306346842422e+01   9.922362119828698e-01   2.099859750090145e+00  -3.758108027189657e-03
2017-01-01T09:53:10.000   5.109594860044732e+04  -1.650195961110632e+04   2.750547859781148e+01   9.909206080126401e-01   2.100284863917247e+00  -3.758865987450164e-03
2017-01-01T09:53:20.000   5.110585122835536e+04  -1.648095463944563e+04   2.746788615272587e+01   9.896049675201096e-01   2.100709366333063e+00  -3.759622846090533e-03
2017-01-01T09:53:30.000   5.111574069977586e+04  -1.645994542560546e+04   2.743028614418199e+01   9.882892905902512e-01   2.101133257517188e+00  -3.760378603404855e-03
2017-01-01T09:53:40.000   5.112561701433903e+04  -1.643893197570803e+04   2.739267858321093e+01   9.869735773085663e-01   2.101556537648703e+00  -3.761133259686339e-03
2017-01-01T09:53:50.000   5.113548017157718e+04  -1.641791429608722e+04   2.735506348122295e+01   9.856578277737423e-01   2.101979206902194e+00  -3.761886815220188e-03
2017-01-01T09:54:00.000   5.114533017105100e+04  -1.639689239301597e+04   2.731744084951938e+01   9.843420420806075e-01   2.102401265453155e+00  -3.762639270293246e-03
2017-01-01T09:54:10.000   5.115516701229858e+04  -1.637586627281559e+04   2.727981069948851e+01   9.830262203269735e-01   2.102822713475809e+00  -3.763390625190111e-03
2017-01-01T09:54:20.000   5.116499069506118e+04  -1.635483594137340e+04   2.724217304174215e+01   9.817103625834438e-01   2.103243551152778e+00  -3.764140880210367e-03
2017-01-01T09:54:30.000   5.117480121905674e+04  -1.633380140462631e+04   2.720452788698112e+01   9.803944689236825e-01   2.103663778665380e+00  -3.764890035651302e-03
2017-01-01T09:54:40.000   5.118459858403861e+04  -1.631276266843602e+04   2.716687524577196e+01   9.790785394166005e-01   2.104083396196147e+00  -3.765638091812376e-03
2017-01-01T09:54:50.000   5.119438278963750e+04  -1.629171973892453e+04   2.712921512914724e+01   9.777625741473643e-01   2.104502403922047e+00  -3.766385048983148e-03
2017-01-01T09:55:00.000   5.120415383549202e+04  -1.627067262219732e+04   2.709154754811038e+01   9.764465732000611e-01   2.104920802020085e+00  -3.767130907453273e-03
2017-01-01T09:55:10.000   5.121391172121959e+04  -1.624962132440517e+04   2.705387251374599e+01   9.751305366615680e-01   2.105338590666053e+00  -3.767875667510249e-03
2017-01-01T09:55:20.000   5.122365644642512e+04  -1.622856585172762e+04   2.701619003719053e+01   9.738144646205018e-01   2.105755770034907e+00  -3.768619329440103e-03
2017-01-01T09:55:30.000   5.123338801070999e+04  -1.620750621035173e+04   2.697850012959416e+01   9.724983571659102e-01   2.106172340301148e+00  -3.769361893528079e-03
2017-01-01T09:55:40.000   5.124310641367564e+04  -1.618644240646459e+04   2.694080280210733e+01   9.711822143867929e-01   2.106588301638975e+00  -3.770103360058890e-03
